QIANFAN-65              
1 62795U 25016L   26002.91286858  .00000221  00000+0  32367-3 0  9998
2 62795  88.9763 100.8721 0012153 280.9262  79.0521 13.50979530 50104
QIANFAN-66              
1 62796U 25016M   26002.94168528  .00000216  00000+0  31545-3 0  9996
2 62796  88.9782 100.8435 0013278 275.9044  84.0593 13.50984463 50150
QIANFAN-67              
1 62797U 25016N   26002.94586986  .00000214  00000+0  31328-3 0  9996
2 62797  88.9772 100.8665 0013206 283.7279  76.2402 13.50988614 50124
QIANFAN-68              
1 62798U 25016P   26002.78940046  .00000203  00000+0  29570-3 0  9994
2 62798  88.9776 100.9286 0013272 282.2330  77.7335 13.50990943 50088
QIANFAN-69              
1 62799U 25016Q   26002.95398485  .00000223  00000+0  32678-3 0  9993
2 62799  88.9754 100.7765 0014016 282.9450  77.0136 13.50980911 50145
QIANFAN-70              
1 62800U 25016R   26002.97054799  .00000224  00000+0  32875-3 0  9995
2 62800  88.9776 100.9178 0013685 272.0586  87.8998 13.50984754 50103
QIANFAN-71              
1 62801U 25016S   26002.89228935  .00000230  00000+0  33793-3 0  9999
2 62801  88.9770 100.9040 0013926 287.2393  72.7234 13.50984210 50099
QIANFAN-72              
1 62802U 25016T   26002.90873962  .00000213  00000+0  31095-3 0  9992
2 62802  88.9760 100.9137 0017191 295.1958  64.7410 13.50983963 50089
